[{"OBJECT_NAME":"STARLINK-31715","OBJECT_ID":"2024-062L","EPOCH":"2026-03-09T18:15:29.905056","MEAN_MOTION":15.30189966,"ECCENTRICITY":0.00011183,"INCLINATION":53.1597,"RA_OF_ASC_NODE":255.2389,"ARG_OF_PERICENTER":94.7022,"MEAN_ANOMALY":265.4106,"EPHEMERIS_TYPE":0,"CLASSIFICATION_TYPE":"U","NORAD_CAT_ID":59384,"ELEMENT_SET_NO":999,"REV_AT_EPOCH":10968,"BSTAR":5.592198e-6,"MEAN_MOTION_DOT":-1.93e-6,"MEAN_MOTION_DDOT":0},{"OBJECT_NAME":"OBJECT L","OBJECT_ID":"2024-024L","EPOCH":"2026-03-09T22:36:05.522976","MEAN_MOTION":15.29373491,"ECCENTRICITY":0.00073185,"INCLINATION":97.3169,"RA_OF_ASC_NODE":137.7038,"ARG_OF_PERICENTER":167.6369,"MEAN_ANOMALY":192.5052,"EPHEMERIS_TYPE":0,"CLASSIFICATION_TYPE":"U","NORAD_CAT_ID":58927,"ELEMENT_SET_NO":999,"REV_AT_EPOCH":9318,"BSTAR":0.00043092344,"MEAN_MOTION_DOT":0.00012217,"MEAN_MOTION_DDOT":0}]
